DELTA 2 R/B(1)          
1 20453U 90008B   26043.19301809  .00079978  00000+0  10444-2 0  9991
2 20453  35.6052 341.7229 0092440  20.4748 339.9657 15.52436033922163
COSMOS 2058             
1 20465U 90010A   26043.55286539  .00004436  00000+0  26299-3 0  9992
2 20465  82.4652  72.1917 0011682  67.0916 293.1546 15.11086455938444
SL-14 R/B               
1 20466U 90010B   26043.73149702  .00000440  00000+0  50358-4 0  9998
2 20466  82.5022 290.8346 0020533  26.1971 334.0278 14.83547181924789
SL-14 R/B               
1 20511U 90018B   26043.92777418  .00000453  00000+0  53900-4 0  9999
2 20511  82.5180 246.2392 0016532 168.6758 191.4832 14.82118028918912
HST                     
1 20580U 90037B   26043.75278730  .00007385  00000+0  24631-3 0  9999
2 20580  28.4659 210.0598 0001584 182.6743 177.3844 15.29077894769496
SL-16 R/B               
1 20625U 90046B   26043.95508317  .00000323  00000+0  19128-3 0  9998
2 20625  71.0011 349.8584 0014964 334.1288  25.9085 14.15008800844890
COSMOS 2084             
1 20663U 90055A   26043.48299229  .00002867  00000+0  21157-3 0  9997
2 20663  62.7896  61.5378 0021046 184.6655 175.4252 15.05485153932529
SL-6 R/B(2)             
1 20666U 90055D   26043.96361346  .00002694  00000+0  21046-3 0  9998
2 20666  62.7847 337.9269 0021047 340.2377  19.7905 15.03467441934478
SL-8 R/B                
1 20775U 90078B   26043.70530292  .00015505  00000+0  45583-3 0  9991
2 20775  82.9021 273.7651 0366675  97.6992 266.6021 14.88228898805588
SL-8 R/B                
1 21088U 91006B   26043.87599111  .00000031  00000+0  15586-4 0  9993
2 21088  82.9440 188.4930 0023743 104.3983  59.6620 13.77492232760650
OKEAN-3                 
1 21397U 91039A   26043.94103684  .00004083  00000+0  28813-3 0  9993
2 21397  82.5176   0.8112 0016359  58.3052 301.9767 15.04605330861311
COSMOS 2151             
1 21422U 91042A   26043.86868886  .00001867  00000+0  14772-3 0  9995
2 21422  82.4958 107.6208 0013560 138.5562 221.6694 15.00009948859477
