CCSDS_OMM_VERS = 2.0
CREATION_DATE  = 
ORIGINATOR     = 

OBJECT_NAME    = DELTA 2 R/B(1)
OBJECT_ID      = 1990-008B
CENTER_NAME    = EARTH
REF_FRAME      = TEME
TIME_SYSTEM    = UTC
MEAN_ELEMENT_THEORY = SGP/SGP4

EPOCH          = 2026-02-12T04:37:56.762976
MEAN_MOTION    = 15.52436033
ECCENTRICITY   = .009244
INCLINATION    = 35.6052
RA_OF_ASC_NODE = 341.7229
ARG_OF_PERICENTER = 20.4748
MEAN_ANOMALY   = 339.9657

EPHEMERIS_TYPE = 0
CLASSIFICATION_TYPE = U
NORAD_CAT_ID   = 20453
ELEMENT_SET_NO = 999
REV_AT_EPOCH   = 92216
BSTAR          = .10444E-2
MEAN_MOTION_DOT = .79978E-3
MEAN_MOTION_DDOT = 0

CCSDS_OMM_VERS = 2.0
CREATION_DATE  = 
ORIGINATOR     = 

OBJECT_NAME    = COSMOS 2058
OBJECT_ID      = 1990-010A
CENTER_NAME    = EARTH
REF_FRAME      = TEME
TIME_SYSTEM    = UTC
MEAN_ELEMENT_THEORY = SGP/SGP4

EPOCH          = 2026-02-12T13:16:07.569696
MEAN_MOTION    = 15.11086455
ECCENTRICITY   = .0011682
INCLINATION    = 82.4652
RA_OF_ASC_NODE = 72.1917
ARG_OF_PERICENTER = 67.0916
MEAN_ANOMALY   = 293.1546

EPHEMERIS_TYPE = 0
CLASSIFICATION_TYPE = U
NORAD_CAT_ID   = 20465
ELEMENT_SET_NO = 999
REV_AT_EPOCH   = 93844
BSTAR          = .26299E-3
MEAN_MOTION_DOT = .4436E-4
MEAN_MOTION_DDOT = 0

CCSDS_OMM_VERS = 2.0
CREATION_DATE  = 
ORIGINATOR     = 

OBJECT_NAME    = SL-14 R/B
OBJECT_ID      = 1990-010B
CENTER_NAME    = EARTH
REF_FRAME      = TEME
TIME_SYSTEM    = UTC
MEAN_ELEMENT_THEORY = SGP/SGP4

EPOCH          = 2026-02-12T17:33:21.342528
MEAN_MOTION    = 14.83547181
ECCENTRICITY   = .00205338
INCLINATION    = 82.5022
RA_OF_ASC_NODE = 290.8346
ARG_OF_PERICENTER = 26.1971
MEAN_ANOMALY   = 334.0278

EPHEMERIS_TYPE = 0
CLASSIFICATION_TYPE = U
NORAD_CAT_ID   = 20466
ELEMENT_SET_NO = 999
REV_AT_EPOCH   = 92478
BSTAR          = .50357856E-4
MEAN_MOTION_DOT = .44E-5
MEAN_MOTION_DDOT = 0

CCSDS_OMM_VERS = 2.0
CREATION_DATE  = 
ORIGINATOR     = 

OBJECT_NAME    = SL-14 R/B
OBJECT_ID      = 1990-018B
CENTER_NAME    = EARTH
REF_FRAME      = TEME
TIME_SYSTEM    = UTC
MEAN_ELEMENT_THEORY = SGP/SGP4

EPOCH          = 2026-02-12T22:15:59.689152
MEAN_MOTION    = 14.82118028
ECCENTRICITY   = .00165323
INCLINATION    = 82.5180
RA_OF_ASC_NODE = 246.2392
ARG_OF_PERICENTER = 168.6758
MEAN_ANOMALY   = 191.4832

EPHEMERIS_TYPE = 0
CLASSIFICATION_TYPE = U
NORAD_CAT_ID   = 20511
ELEMENT_SET_NO = 999
REV_AT_EPOCH   = 91891
BSTAR          = .53899831E-4
MEAN_MOTION_DOT = .453E-5
MEAN_MOTION_DDOT = 0

CCSDS_OMM_VERS = 2.0
CREATION_DATE  = 
ORIGINATOR     = 

OBJECT_NAME    = HST
OBJECT_ID      = 1990-037B
CENTER_NAME    = EARTH
REF_FRAME      = TEME
TIME_SYSTEM    = UTC
MEAN_ELEMENT_THEORY = SGP/SGP4

EPOCH          = 2026-02-12T18:04:00.822720
MEAN_MOTION    = 15.29077894
ECCENTRICITY   = .00015847
INCLINATION    = 28.4659
RA_OF_ASC_NODE = 210.0598
ARG_OF_PERICENTER = 182.6743
MEAN_ANOMALY   = 177.3844

EPHEMERIS_TYPE = 0
CLASSIFICATION_TYPE = U
NORAD_CAT_ID   = 20580
ELEMENT_SET_NO = 999
REV_AT_EPOCH   = 76949
BSTAR          = .24630554E-3
MEAN_MOTION_DOT = .7385E-4
MEAN_MOTION_DDOT = 0

CCSDS_OMM_VERS = 2.0
CREATION_DATE  = 
ORIGINATOR     = 

OBJECT_NAME    = SL-16 R/B
OBJECT_ID      = 1990-046B
CENTER_NAME    = EARTH
REF_FRAME      = TEME
TIME_SYSTEM    = UTC
MEAN_ELEMENT_THEORY = SGP/SGP4

EPOCH          = 2026-02-12T22:55:19.185888
MEAN_MOTION    = 14.15008800
ECCENTRICITY   = .0014964
INCLINATION    = 71.0011
RA_OF_ASC_NODE = 349.8584
ARG_OF_PERICENTER = 334.1288
MEAN_ANOMALY   = 25.9085

EPHEMERIS_TYPE = 0
CLASSIFICATION_TYPE = U
NORAD_CAT_ID   = 20625
ELEMENT_SET_NO = 999
REV_AT_EPOCH   = 84489
BSTAR          = .19127545E-3
MEAN_MOTION_DOT = .323E-5
MEAN_MOTION_DDOT = 0

CCSDS_OMM_VERS = 2.0
CREATION_DATE  = 
ORIGINATOR     = 

OBJECT_NAME    = COSMOS 2084
OBJECT_ID      = 1990-055A
CENTER_NAME    = EARTH
REF_FRAME      = TEME
TIME_SYSTEM    = UTC
MEAN_ELEMENT_THEORY = SGP/SGP4

EPOCH          = 2026-02-12T11:35:30.533856
MEAN_MOTION    = 15.05485153
ECCENTRICITY   = .00210461
INCLINATION    = 62.7896
RA_OF_ASC_NODE = 61.5378
ARG_OF_PERICENTER = 184.6655
MEAN_ANOMALY   = 175.4252

EPHEMERIS_TYPE = 0
CLASSIFICATION_TYPE = U
NORAD_CAT_ID   = 20663
ELEMENT_SET_NO = 999
REV_AT_EPOCH   = 93252
BSTAR          = .21157132E-3
MEAN_MOTION_DOT = .2867E-4
MEAN_MOTION_DDOT = 0

CCSDS_OMM_VERS = 2.0
CREATION_DATE  = 
ORIGINATOR     = 

OBJECT_NAME    = SL-6 R/B(2)
OBJECT_ID      = 1990-055D
CENTER_NAME    = EARTH
REF_FRAME      = TEME
TIME_SYSTEM    = UTC
MEAN_ELEMENT_THEORY = SGP/SGP4

EPOCH          = 2026-02-12T23:07:36.202944
MEAN_MOTION    = 15.03467441
ECCENTRICITY   = .00210478
INCLINATION    = 62.7847
RA_OF_ASC_NODE = 337.9269
ARG_OF_PERICENTER = 340.2377
MEAN_ANOMALY   = 19.7905

EPHEMERIS_TYPE = 0
CLASSIFICATION_TYPE = U
NORAD_CAT_ID   = 20666
ELEMENT_SET_NO = 999
REV_AT_EPOCH   = 93447
BSTAR          = .21045553E-3
MEAN_MOTION_DOT = .2694E-4
MEAN_MOTION_DDOT = 0

CCSDS_OMM_VERS = 2.0
CREATION_DATE  = 
ORIGINATOR     = 

OBJECT_NAME    = SL-8 R/B
OBJECT_ID      = 1990-078B
CENTER_NAME    = EARTH
REF_FRAME      = TEME
TIME_SYSTEM    = UTC
MEAN_ELEMENT_THEORY = SGP/SGP4

EPOCH          = 2026-02-12T16:55:38.172288
MEAN_MOTION    = 14.88228898
ECCENTRICITY   = .03666754
INCLINATION    = 82.9021
RA_OF_ASC_NODE = 273.7651
ARG_OF_PERICENTER = 97.6992
MEAN_ANOMALY   = 266.6021

EPHEMERIS_TYPE = 0
CLASSIFICATION_TYPE = U
NORAD_CAT_ID   = 20775
ELEMENT_SET_NO = 999
REV_AT_EPOCH   = 80558
BSTAR          = .45583211E-3
MEAN_MOTION_DOT = .15505E-3
MEAN_MOTION_DDOT = 0

CCSDS_OMM_VERS = 2.0
CREATION_DATE  = 
ORIGINATOR     = 

OBJECT_NAME    = SL-8 R/B
OBJECT_ID      = 1991-006B
CENTER_NAME    = EARTH
REF_FRAME      = TEME
TIME_SYSTEM    = UTC
MEAN_ELEMENT_THEORY = SGP/SGP4

EPOCH          = 2026-02-12T21:01:25.631904
MEAN_MOTION    = 13.77492232
ECCENTRICITY   = .00237434
INCLINATION    = 82.9440
RA_OF_ASC_NODE = 188.4930
ARG_OF_PERICENTER = 104.3983
MEAN_ANOMALY   = 59.6620

EPHEMERIS_TYPE = 0
CLASSIFICATION_TYPE = U
NORAD_CAT_ID   = 21088
ELEMENT_SET_NO = 999
REV_AT_EPOCH   = 76065
BSTAR          = .15586472E-4
MEAN_MOTION_DOT = .31E-6
MEAN_MOTION_DDOT = 0

CCSDS_OMM_VERS = 2.0
CREATION_DATE  = 
ORIGINATOR     = 

OBJECT_NAME    = OKEAN-3
OBJECT_ID      = 1991-039A
CENTER_NAME    = EARTH
REF_FRAME      = TEME
TIME_SYSTEM    = UTC
MEAN_ELEMENT_THEORY = SGP/SGP4

EPOCH          = 2026-02-12T22:35:05.582976
MEAN_MOTION    = 15.04605330
ECCENTRICITY   = .0016359
INCLINATION    = 82.5176
RA_OF_ASC_NODE = 0.8112
ARG_OF_PERICENTER = 58.3052
MEAN_ANOMALY   = 301.9767

EPHEMERIS_TYPE = 0
CLASSIFICATION_TYPE = U
NORAD_CAT_ID   = 21397
ELEMENT_SET_NO = 999
REV_AT_EPOCH   = 86131
BSTAR          = .2881292E-3
MEAN_MOTION_DOT = .4083E-4
MEAN_MOTION_DDOT = 0

CCSDS_OMM_VERS = 2.0
CREATION_DATE  = 
ORIGINATOR     = 

OBJECT_NAME    = COSMOS 2151
OBJECT_ID      = 1991-042A
CENTER_NAME    = EARTH
REF_FRAME      = TEME
TIME_SYSTEM    = UTC
MEAN_ELEMENT_THEORY = SGP/SGP4

EPOCH          = 2026-02-12T20:50:54.717504
MEAN_MOTION    = 15.00009948
ECCENTRICITY   = .00135605
INCLINATION    = 82.4958
RA_OF_ASC_NODE = 107.6208
ARG_OF_PERICENTER = 138.5562
MEAN_ANOMALY   = 221.6694

EPHEMERIS_TYPE = 0
CLASSIFICATION_TYPE = U
NORAD_CAT_ID   = 21422
ELEMENT_SET_NO = 999
REV_AT_EPOCH   = 85947
BSTAR          = .14771851E-3
MEAN_MOTION_DOT = .1867E-4
MEAN_MOTION_DDOT = 0

